[{"OBJECT_NAME":"STARLINK-1719","OBJECT_ID":"2020-062G","EPOCH":"2026-03-09T22:21:04.372704","MEAN_MOTION":15.58072136,"ECCENTRICITY":0.00034268,"INCLINATION":53.0447,"RA_OF_ASC_NODE":337.6114,"ARG_OF_PERICENTER":279.2031,"MEAN_ANOMALY":80.8593,"EPHEMERIS_TYPE":0,"CLASSIFICATION_TYPE":"U","NORAD_CAT_ID":46331,"ELEMENT_SET_NO":999,"REV_AT_EPOCH":30488,"BSTAR":0.0013818203,"MEAN_MOTION_DOT":0.00106661,"MEAN_MOTION_DDOT":0},{"OBJECT_NAME":"STARLINK-2083","OBJECT_ID":"2021-012BJ","EPOCH":"2026-03-09T22:00:01.999584","MEAN_MOTION":15.55245903,"ECCENTRICITY":0.00071106,"INCLINATION":53.0514,"RA_OF_ASC_NODE":280.5958,"ARG_OF_PERICENTER":164.969,"MEAN_ANOMALY":209.1716,"EPHEMERIS_TYPE":0,"CLASSIFICATION_TYPE":"U","NORAD_CAT_ID":47676,"ELEMENT_SET_NO":999,"REV_AT_EPOCH":591,"BSTAR":0.002010668,"MEAN_MOTION_DOT":0.00140592,"MEAN_MOTION_DDOT":0}]
